[ {"name": "STARLINK-31393", "line1": "1 59252U 24049X   26195.20861994  .00000449  00000+0  25853-4 0  9997", "line2": "2 59252  43.0018 134.4678 0000675 296.4936  63.5846 15.27571121131921"}, {"name": "STARLINK-31425", "line1": "1 59253U 24049Y   26195.24779861 -.00000604  00000+0 -12435-4 0  9990", "line2": "2 59253  43.0028 148.6191 0001014 290.2920  69.7823 15.27574773131753"}, {"name": "STARLINK-31659", "line1": "1 59254U 24050A   26195.53767370 -.00000275  00000+0  29969-5 0  9991", "line2": "2 59254  53.1615 307.2624 0000716  88.2038 271.9046 15.34392653131189"}, {"name": "STARLINK-31629", "line1": "1 59255U 24050B   26195.63298878 -.00000667  00000+0 -10396-4 0  9994", "line2": "2 59255  53.1599 311.3926 0001516  54.7847 305.3296 15.30192754129987"}, {"name": "STARLINK-31652", "line1": "1 59256U 24050C   26195.58527357 -.00000498  00000+0 -42809-5 0  9993", "line2": "2 59256  53.1591 311.1030 0000815  99.5169 260.5925 15.31697191129986"}, {"name": "STARLINK-31637", "line1": "1 59258U 24050E   26195.62851190  .00006516  00000+0  20367-3 0  9993", "line2": "2 59258  53.1613 310.6641 0001142  86.0908 274.0225 15.34420827129998"}, {"name": "STARLINK-31506", "line1": "1 59259U 24050F   26195.62981657  .00001475  00000+0  61910-4 0  9995", "line2": "2 59259  53.1619 311.3730 0001288  94.4983 265.6165 15.30196806129980"}, {"name": "STARLINK-31639", "line1": "1 59261U 24050H   26195.58059707 -.00005663  00000+0 -17081-3 0  9999", "line2": "2 59261  53.1593 311.0724 0000661  95.1216 264.9861 15.31709808129983"}, {"name": "STARLINK-31598", "line1": "1 59263U 24050K   26195.63273991  .00000096  00000+0  13968-4 0  9994", "line2": "2 59263  53.1597 310.6655 0001250  71.4164 288.6975 15.34388297129999"}, {"name": "STARLINK-31645", "line1": "1 59264U 24050L   26195.59916802  .00014901  00000+0  45166-3 0  9999", "line2": "2 59264  53.1591 311.1852 0001313  55.5745 304.5382 15.34373435129984"}, {"name": "STARLINK-31646", "line1": "1 59265U 24050M   26195.57392210 -.00000101  00000+0  81626-5 0  9990", "line2": "2 59265  53.1615 311.0337 0001794  53.0893 307.0274 15.34382088129981"}, {"name": "STARLINK-31648", "line1": "1 59266U 24050N   26195.62348780 -.00000231  00000+0  43095-5 0  9992", "line2": "2 59266  53.1610 311.3334 0001143  99.4117 260.7013 15.30190778129983"}, {"name": "STARLINK-31579", "line1": "1 59267U 24050P   26195.57192107 -.00005136  00000+0 -16161-3 0  9999", "line2": "2 59267  53.1600 311.7241 0000870 117.2445 242.8645 15.30159701129975"}, {"name": "STARLINK-31627", "line1": "1 59268U 24050Q   26195.57601004  .00012676  00000+0  38518-3 0  9996", "line2": "2 59268  53.1616 311.0385 0001843  58.2432 301.8750 15.34440255129981"}, {"name": "STARLINK-31609", "line1": "1 59269U 24050R   26195.58023576 -.00001161  00000+0 -23233-4 0  9998", "line2": "2 59269  53.1608 311.0644 0001049  83.6727 276.4395 15.34384967129987"}, {"name": "STARLINK-31616", "line1": "1 59270U 24050S   26195.63064185  .00006642  00000+0  20768-3 0  9993", "line2": "2 59270  53.1607 310.6693 0001420  93.5803 266.5362 15.34376649129998"}, {"name": "STARLINK-31630", "line1": "1 59271U 24050T   26195.59434071  .00002241  00000+0  77495-4 0  9995", "line2": "2 59271  53.1601 296.9449 0001123  51.5797 308.5307 15.34380765130187"}, {"name": "STARLINK-31623", "line1": "1 59272U 24050U   26195.56129818  .00000448  00000+0  24399-4 0  9995", "line2": "2 59272  53.1615 310.9546 0001028  66.3166 293.7945 15.34386549129981"}, {"name": "STARLINK-31595", "line1": "1 59273U 24050V   26195.56134192  .00000095  00000+0  15312-4 0  9990", "line2": "2 59273  53.1602 311.6691 0000753  91.2997 268.8090 15.30192723129978"}, {"name": "STARLINK-31463", "line1": "1 59296U 24056A   26195.17066298  .00000410  00000+0  24440-4 0  9992", "line2": "2 59296  43.0010 232.4667 0001486 262.7815  97.2868 15.27579776130540"}, {"name": "STARLINK-31487", "line1": "1 59297U 24056B   26195.48569819 -.00000433  00000+0 -62264-5 0  9998", "line2": "2 59297  43.0013 234.8476 0001125 270.3188  89.7535 15.27570537130662"}, {"name": "STARLINK-31386", "line1": "1 59298U 24056C   26195.46771844 -.00000967  00000+0 -25647-4 0  9995", "line2": "2 59298  42.9995 234.7126 0001184 266.3277  93.7439 15.27564265130546"}, {"name": "STARLINK-31409", "line1": "1 59299U 24056D   26195.07892655 -.00001698  00000+0 -52236-4 0  9993", "line2": "2 59299  42.9993 230.0308 0000990 223.6135 136.4638 15.27566827130686"}, {"name": "STARLINK-31489", "line1": "1 59300U 24056E   26195.58303701  .00005847  00000+0  22164-3 0  9995", "line2": "2 59300  42.9995 233.8599 0001543 271.5880  88.4795 15.27605516130564"}, {"name": "STARLINK-31502", "line1": "1 59301U 24056F   26195.38015614 -.00000397  00000+0 -49106-5 0  9991", "line2": "2 59301  42.9974 227.9830 0000979 265.2894  94.7846 15.27573987130610"}, {"name": "STARLINK-31447", "line1": "1 59302U 24056G   26195.40488942 -.00000436  00000+0 -63119-5 0  9997", "line2": "2 59302  42.9991 235.0985 0001177 274.1148  85.9569 15.27573952130530"}, {"name": "STARLINK-31504", "line1": "1 59303U 24056H   26195.41259728  .00000302  00000+0  20518-4 0  9992", "line2": "2 59303  43.0013 235.1586 0001447 282.9709  77.0981 15.27576487130532"}, {"name": "STARLINK-31474", "line1": "1 59304U 24056J   26195.14944975 -.00000346  00000+0 -30435-5 0  9998", "line2": "2 59304  43.0039 229.7003 0001214 273.8850  86.1863 15.27578710130577"}, {"name": "STARLINK-31500", "line1": "1 59305U 24056K   26195.47412903 -.00000801  00000+0 -19585-4 0  9994", "line2": "2 59305  43.0001 234.7588 0001279 273.5759  86.4946 15.27575313130545"}, {"name": "STARLINK-31480", "line1": "1 59306U 24056L   26195.59077233 -.00000805  00000+0 -19747-4 0  9995", "line2": "2 59306  43.0010 233.9126 0001345 268.2566  91.8131 15.27572026130562"}, {"name": "STARLINK-31282", "line1": "1 59307U 24056M   26195.41645724  .00005160  00000+0  19709-3 0  9997", "line2": "2 59307  43.0014 235.1857 0001553 275.9798  84.0877 15.27549775130538"}, {"name": "STARLINK-31485", "line1": "1 59308U 24056N   26195.16261487 -.00000410  00000+0 -53646-5 0  9995", "line2": "2 59308  43.0021 236.7159 0001029 252.0765 107.9974 15.27578192130490"}, {"name": "STARLINK-31455", "line1": "1 59309U 24056P   26195.55541864  .00000136  00000+0  14488-4 0  9992", "line2": "2 59309  43.0044 231.0565 0001925 290.3009  69.7636 15.27578186130590"}, {"name": "STARLINK-31475", "line1": "1 59310U 24056Q   26195.16053165  .00000289  00000+0  20016-4 0  9996", "line2": "2 59310  43.0031 233.2501 0001302 268.7057  91.3645 15.27578891130654"}, {"name": "STARLINK-31445", "line1": "1 59312U 24056S   26195.41677010 -.00000339  00000+0 -28021-5 0  9990", "line2": "2 59312  42.9980 242.1061 0000986 265.2465  94.8274 15.27575024130458"}, {"name": "STARLINK-31495", "line1": "1 59313U 24056T   26195.37129038  .00058422  00000+0  15071-2 0  9990", "line2": "2 59313  42.9956 224.4464 0009936  71.8305 288.3631 15.38306423130656"}, {"name": "STARLINK-31477", "line1": "1 59314U 24056U   26195.35959593 -.00000385  00000+0 -44628-5 0  9996", "line2": "2 59314  43.0028 227.8370 0001792 278.4959  81.5689 15.27578301130610"}, {"name": "STARLINK-31446", "line1": "1 59315U 24056V   26195.38303541  .00001852  00000+0  76819-4 0  9990", "line2": "2 59315  42.9983 234.9342 0001104 249.5789 110.4944 15.27577765130534"}, {"name": "STARLINK-31479", "line1": "1 59316U 24056W   26195.18911561 -.00000180  00000+0  29655-5 0  9997", "line2": "2 59316  43.0015 240.3777 0001211 251.5348 108.5372 15.27578565130452"}, {"name": "STARLINK-31349", "line1": "1 59317U 24056X   26195.39846275 -.00000217  00000+0  16312-5 0  9997", "line2": "2 59317  43.0005 235.0496 0001019 267.2481  92.8254 15.27577664130609"}, {"name": "STARLINK-31464", "line1": "1 59318U 24056Y   26195.39075449  .00000015  00000+0  10053-4 0  9995", "line2": "2 59318  42.9985 234.9890 0000866 260.7780  99.2974 15.27575513130533"}, {"name": "STARLINK-31402", "line1": "1 59320U 24057A   26195.18312652  .00010904  00000+0  33695-3 0  9990", "line2": "2 59320  42.9987 143.5588 0006446 164.7534 195.3516 15.33550009129737"}, {"name": "STARLINK-31578", "line1": "1 59321U 24057B   26195.01280306 -.00000127  00000+0  49041-5 0  9994", "line2": "2 59321  43.0000 193.2253 0001268 278.9939  81.0769 15.27577101129164"}, {"name": "STARLINK-31530", "line1": "1 59322U 24057C   26195.34698019  .00092128  00000+0  60950-3 0  9996", "line2": "2 59322  42.9848 154.6366 0024625 156.0023 204.1999 15.74109532129637"}, {"name": "STARLINK-31565", "line1": "1 59323U 24057D   26195.10178476  .00000231  00000+0  17906-4 0  9999", "line2": "2 59323  43.0003 200.8230 0001048 275.6750  84.3983 15.27575333129080"}, {"name": "STARLINK-31570", "line1": "1 59324U 24057E   26195.07577120 -.00001374  00000+0 -40419-4 0  9991", "line2": "2 59324  43.0002 193.7017 0001526 273.8281  86.2396 15.27566829129161"}, {"name": "STARLINK-31611", "line1": "1 59325U 24057F   26195.01166495  .00000090  00000+0  12803-4 0  9993", "line2": "2 59325  43.0001 194.0825 0001167 269.4803  90.5915 15.27577631129151"}, {"name": "STARLINK-31632", "line1": "1 59326U 24057G   26195.50389767 -.00000298  00000+0 -12957-5 0  9990", "line2": "2 59326  43.0008 202.1410 0001358 271.2696  88.8000 15.27576318129104"}, {"name": "STARLINK-31599", "line1": "1 59327U 24057H   26195.48721460 -.00001109  00000+0 -30799-4 0  9993", "line2": "2 59327  42.9996 190.7715 0000834 275.5805  84.4952 15.27575158129239"}, {"name": "STARLINK-31614", "line1": "1 59328U 24057J   26195.05392407  .00000292  00000+0  20152-4 0  9994", "line2": "2 59328  43.0029 193.5440 0001300 270.6454  89.4249 15.27576440129161"}, {"name": "STARLINK-31493", "line1": "1 59329U 24057K   26195.29875673  .00000946  00000+0  43893-4 0  9995", "line2": "2 59329  43.0026 191.9356 0001336 281.1587  78.9115 15.27581895129200"}, {"name": "STARLINK-31634", "line1": "1 59330U 24057L   26195.06291461 -.00000035  00000+0  82335-5 0  9994", "line2": "2 59330  42.9998 193.5999 0001279 238.6459 121.4267 15.27578327129163"}]